NORAD_CAT_ID,OBJECT_NAME,OBJECT_TYPE,EPOCH,MEAN_MOTION,ECCENTRICITY,INCLINATION,RA_OF_ASC_NODE,ARG_OF_PERICENTER,MEAN_ANOMALY,BSTAR,MEAN_MOTION_DOT,MEAN_MOTION_DDOT,TLE_LINE0,TLE_LINE1,TLE_LINE2,SEMIMAJOR_AXIS,PERIOD,APOGEE,PERIGEE,DECAYED
53391.0,STARLINK-4521,PAYLOAD,2022-09-26 22:00:00,15.08866773,0.0001791,53.2176,19.4624,45.709,86.0547,-0.0043866,-0.0006948,0.0,0 STARLINK-4521,1 53391U 22097D   22269.91667824 -.00069480  00000-0 -43866-2 0  9993,2 53391  53.2176  19.4624 0001791  45.7090  86.0547 15.08866773  1301,6917.799,95.436,540.903,538.425,0.0
53391.0,STARLINK-4521,PAYLOAD,2022-09-27 14:00:01,15.08829538,0.0001763,53.2185,16.4752,46.0715,108.8458,-0.0001230999999999,-2.246e-05,0.0,0 STARLINK-4521,1 53391U 22097D   22270.58334491 -.00002246  00000-0 -12310-3 0  9997,2 53391  53.2185  16.4752 0001763  46.0715 108.8458 15.08829538  7934,6917.9119999999975,95.438,540.997,538.558,0.0
53391.0,STARLINK-4521,PAYLOAD,2022-09-27 22:00:01,15.08867917,0.0001768,53.2184,14.9783,43.7224,122.8568,-0.0005367,-8.826e-05,0.0,0 STARLINK-4521,1 53391U 22097D   22270.91668981 -.00008826  00000-0 -53670-3 0  9992,2 53391  53.2184  14.9783 0001768  43.7224 122.8568 15.08867917  7980,6917.795,95.436,540.883,538.437,0.0
53391.0,STARLINK-4521,PAYLOAD,2022-09-28 14:00:01,15.08842545,0.0001902,53.2186,11.9864,45.9458,143.779,-0.0015355,-0.00024645,0.0,0 STARLINK-4521,1 53391U 22097D   22271.58334491 -.00024645  00000-0 -15355-2 0  9996,2 53391  53.2186  11.9864 0001902  45.9458 143.7790 15.08842545  8083,6917.873000000001,95.437,541.053,538.422,0.0
53391.0,STARLINK-4521,PAYLOAD,2022-09-28 22:00:00,15.08858992,0.0001806,53.2187,10.4895,43.291,158.0095,-0.0035348,-0.00056136,0.0,0 STARLINK-4521,1 53391U 22097D   22271.91667824 -.00056136  00000-0 -35348-2 0  9996,2 53391  53.2187  10.4895 0001806  43.2910 158.0095 15.08858992  1307,6917.821999999999,95.436,540.937,538.438,0.0
53391.0,STARLINK-4521,PAYLOAD,2022-09-29 14:00:01,15.08819699,0.0001876999999999,53.2189,7.4976,42.0484,182.4189,0.0010728,0.00016817,0.0,0 STARLINK-4521,1 53391U 22097D   22272.58334491  .00016817  00000-0  10728-2 0  9996,2 53391  53.2189   7.4976 0001877  42.0484 182.4189 15.08819699  8231,6917.941999999999,95.439,541.106,538.509,0.0
53391.0,STARLINK-4521,PAYLOAD,2022-09-29 22:00:00,15.08854894,0.0001806,53.219,6.0005,41.6217,194.4199,-0.0013484999999999,-0.00021694,0.0,0 STARLINK-4521,1 53391U 22097D   22272.91667824 -.00021694  00000-0 -13485-2 0  9996,2 53391  53.2190   6.0005 0001806  41.6217 194.4199 15.08854894  1303,6917.835,95.437,540.9490000000002,538.451,0.0
53391.0,STARLINK-4521,PAYLOAD,2022-09-30 14:00:01,15.08864849,0.0001906,53.2192,3.0086,40.7491,218.516,-0.0013744999999999,-0.00022112,0.0,0 STARLINK-4521,1 53391U 22097D   22273.58334491 -.00022112  00000-0 -13745-2 0  9996,2 53391  53.2192   3.0086 0001906  40.7491 218.5160 15.08864849  1303,6917.804,95.436,540.988,538.351,0.0
53391.0,STARLINK-4521,PAYLOAD,2022-09-30 16:00:00,15.08845445,0.0001916,53.2192,2.6348,39.7947,312.3813,0.00079818,0.0001244,0.0,0 STARLINK-4521,1 53391U 22097D   22273.66667824  .00012440  00000-0  79818-3 0  9999,2 53391  53.2192   2.6348 0001916  39.7947 312.3813 15.08845445  8401,6917.864000000001,95.437,541.054,538.403,0.0
53391.0,STARLINK-4521,PAYLOAD,2022-09-30 22:00:00,15.08872162,0.0001821999999999,53.2191,1.5113,41.0732,229.8089,-0.0034766999999999,-0.00055245,0.0,0 STARLINK-4521,1 53391U 22097D   22273.91667824 -.00055245  00000-0 -34767-2 0  9992,2 53391  53.2191   1.5113 0001822  41.0732 229.8089 15.08872162  1307,6917.781999999997,95.436,540.908,538.387,0.0
53391.0,STARLINK-4521,PAYLOAD,2022-10-01 14:00:01,15.08858894,0.0001949,53.2192,358.5196,41.5831,252.5112,-0.0010417999999999,-0.00016839,0.0,0 STARLINK-4521,1 53391U 22097D   22274.58334491 -.00016839  00000-0 -10418-2 0  9990,2 53391  53.2192 358.5196 0001949  41.5831 252.5112 15.08858894  1305,6917.823,95.436,541.036,538.339,0.0
53391.0,STARLINK-4521,PAYLOAD,2022-10-01 22:00:00,15.08865416,0.0001837,53.219,357.0221,42.557,263.1495,-0.0056604,-0.00089321,0.0,0 STARLINK-4521,1 53391U 22097D   22274.91667824 -.00089321  00000-0 -56604-2 0  9999,2 53391  53.2190 357.0221 0001837  42.5570 263.1495 15.08865416  1303,6917.803000000001,95.436,540.939,538.3969999999998,0.0
53391.0,STARLINK-4521,PAYLOAD,2022-10-02 14:00:01,15.08814877,0.0002019,53.219,354.0307,44.2503,284.6183,0.002229,0.00035341,0.0,0 STARLINK-4521,1 53391U 22097D   22275.58334491  .00035341  00000-0  22290-2 0  9999,2 53391  53.2190 354.0307 0002019  44.2503 284.6183 15.08814877  1300,6917.956999999999,95.439,541.219,538.425,0.0
53391.0,STARLINK-4521,PAYLOAD,2022-10-02 22:00:00,15.08855118,0.0001916,53.2187,352.5331,45.9989,294.4508,-0.000559,-9.177e-05,0.0,0 STARLINK-4521,1 53391U 22097D   22275.91667824 -.00009177  00000-0 -55900-3 0  9990,2 53391  53.2187 352.5331 0001916  45.9989 294.4508 15.08855118  1300,6917.834,95.437,541.025,538.374,0.0
53391.0,STARLINK-4521,PAYLOAD,2022-10-03 14:00:01,15.08854434,0.0002075,53.2187,349.5417,46.2985,317.3865,0.00029202,4.364e-05,0.0,0 STARLINK-4521,1 53391U 22097D   22276.58334491  .00004364  00000-0  29202-3 0  9992,2 53391  53.2187 349.5417 0002075  46.2985 317.3865 15.08854434  1309,6917.8359999999975,95.437,541.137,538.266,0.0
53391.0,STARLINK-4521,PAYLOAD,2022-10-03 22:00:00,15.08856927,0.0001904,53.2183,348.0440000000001,45.7528,329.5499,-0.0024285,-0.00038749,0.0,0 STARLINK-4521,1 53391U 22097D   22276.91667824 -.00038749  00000-0 -24285-2 0  9999,2 53391  53.2183 348.0440 0001904  45.7528 329.5499 15.08856927  1309,6917.829000000002,95.436,541.011,538.376,0.0
53391.0,STARLINK-4521,PAYLOAD,2022-10-04 14:00:01,15.08828954,0.0001901,53.2184,345.0528,39.9468,358.5636,-0.0002032999999999,-3.521e-05,0.0,0 STARLINK-4521,1 53391U 22097D   22277.58334491 -.00003521  00000-0 -20330-3 0  9992,2 53391  53.2184 345.0528 0001901  39.9468 358.5636 15.08828954  1303,6917.9140000000025,95.438,541.094,538.464,0.0
53391.0,STARLINK-4521,PAYLOAD,2022-10-04 16:00:00,15.08813066,0.0001894,53.2181,344.6786,37.3452,94.0659,0.0018537,0.00029315,0.0,0 STARLINK-4521,1 53391U 22097D   22277.66667824  .00029315  00000-0  18537-2 0  9992,2 53391  53.2181 344.6786 0001894  37.3452  94.0659 15.08813066  9007,6917.9630000000025,95.439,541.138,538.5169999999998,0.0
53391.0,STARLINK-4521,PAYLOAD,2022-10-04 22:00:00,15.08829939,0.0001798,53.2182,343.5549,39.1935,10.8917,-0.00066836,-0.00010906,0.0,0 STARLINK-4521,1 53391U 22097D   22277.91667824 -.00010906  00000-0 -66836-3 0  9994,2 53391  53.2182 343.5549 0001798  39.1935  10.8917 15.08829939  1306,6917.911,95.438,541.02,538.5319999999998,0.0
53391.0,STARLINK-4521,PAYLOAD,2022-10-05 08:00:01,15.088784900000002,0.0001896,53.2178,341.6771,43.4376,111.1198,-0.0140889999999999,-0.00218038,0.0,0 STARLINK-4521,1 53391U 22097D   22278.33334491 -.00218038  00000-0 -14089-1 0  9999,2 53391  53.2178 341.6771 0001896  43.4376 111.1198 15.08878490  9101,6917.763000000001,95.435,540.939,538.316,0.0
53391.0,STARLINK-4521,PAYLOAD,2022-10-05 14:00:01,15.08821324,0.0001979,53.2183,340.5639,39.0492,34.261,0.00071434,0.00011093,0.0,0 STARLINK-4521,1 53391U 22097D   22278.58335648  .00011093  00000-0  71434-3 0  9990,2 53391  53.2183 340.5639 0001979  39.0492  34.2610 15.08821324  9142,6917.937,95.439,541.172,538.433,0.0
53391.0,STARLINK-4521,PAYLOAD,2022-10-05 22:00:00,15.08816379,0.0001764,53.2184,339.066,38.0875,46.7433,-0.001809,-0.00028945,0.0,0 STARLINK-4521,1 53391U 22097D   22278.91667824 -.00028945  00000-0 -18090-2 0  9995,2 53391  53.2184 339.0660 0001764  38.0875  46.7433 15.08816379  1301,6917.953,95.439,541.038,538.597,0.0
53391.0,STARLINK-4521,PAYLOAD,2022-10-06 06:00:00,15.0881826,0.0001776999999999,53.2184,337.5698,39.947,56.4322,0.00061186,9.457e-05,0.0,0 STARLINK-4521,1 53391U 22097D   22279.25001157  .00009457  00000-0  61186-3 0  9994,2 53391  53.2184 337.5698 0001777  39.9470  56.4322 15.08818260  9247,6917.946999999999,95.439,541.0409999999998,538.5830000000002,0.0
53391.0,STARLINK-4521,PAYLOAD,2022-10-06 14:00:01,15.08803084,0.0002011,53.2184,336.0752,35.4085,72.5483,0.0042857,0.00068514,0.0,0 STARLINK-4521,1 53391U 22097D   22279.58334491  .00068514  00000-0  42857-2 0  9992,2 53391  53.2184 336.0752 0002011  35.4085  72.5483 15.08803084  1301,6917.993,95.44,541.249,538.467,0.0
53391.0,STARLINK-4521,PAYLOAD,2022-10-06 22:42:55,15.08833926,0.0001901,53.2184,334.4406,38.9591,242.4988,0.00038155,5.789e-05,0.0,0 STARLINK-4521,1 53391U 22097D   22279.94646991  .00005789  00000-0  38155-3 0  9995,2 53391  53.2184 334.4406 0001901  38.9591 242.4988 15.08833926  1302,6917.899,95.438,541.0790000000002,538.4490000000002,0.0
53391.0,STARLINK-4521,PAYLOAD,2022-10-07 14:00:01,15.0882149,0.0002066999999999,53.2186,331.5863,35.2154,107.5366,0.0024713,0.00039243,0.0,0 STARLINK-4521,1 53391U 22097D   22280.58334491  .00039243  00000-0  24713-2 0  9992,2 53391  53.2186 331.5863 0002067  35.2154 107.5366 15.08821490  1302,6917.937,95.439,541.232,538.372,0.0
53391.0,STARLINK-4521,PAYLOAD,2022-10-07 22:00:00,15.08828858,0.0001808,53.2187,330.0883,35.3629,118.9874,-0.0010775,-0.0001739,0.0,0 STARLINK-4521,1 53391U 22097D   22280.91667824 -.00017390  00000-0 -10775-2 0  9992,2 53391  53.2187 330.0883 0001808  35.3629 118.9874 15.08828858  1304,6917.9140000000025,95.438,541.03,538.529,0.0
53391.0,STARLINK-4521,PAYLOAD,2022-10-08 06:00:00,15.0875881,0.000194,53.2176,328.5794,39.0525,126.8812,0.0076283,0.00122969,0.0,0 STARLINK-4521,1 53391U 22097D   22281.25001157  .00122969  00000-0  76283-2 0  9994,2 53391  53.2176 328.5794 0001940  39.0525 126.8812 15.08758810  9542,6918.129,95.443,541.336,538.651,0.0
53391.0,STARLINK-4521,PAYLOAD,2022-10-08 14:00:01,15.08821602,0.0002061,53.2185,327.0973,33.0469,144.455,0.0018805,0.00029752,0.0,0 STARLINK-4521,1 53391U 22097D   22281.58334491  .00029752  00000-0  18805-2 0  9992,2 53391  53.2185 327.0973 0002061  33.0469 144.4550 15.08821602  1302,6917.937,95.439,541.227,538.376,0.0
